1 45557U 20025AC  22365.46230859  .00006249  00000-0  43795-3 0  9992
2 45557  53.0519 273.0361 0001560  76.6582 283.4581 15.06409865149895
1 45557U 20025AC  22365.72769428  .00003803  00000-0  27397-3 0  9993
2 45557  53.0504 271.8448 0001896  74.0442 286.0756 15.06411679149934
1 45557U 20025AC  23001.12577783 -.00001831  00000-0 -10403-3 0  9997
2 45557  53.0517 270.0575 0001567  77.2902 282.8262 15.06398987149393
1 45557U 20025AC  23001.45751903 -.00005678  00000-0 -36275-3 0  9999
2 45557  53.0515 268.5681 0001490  80.0078 280.1079 15.06384701150042
1 45557U 20025AC  23001.45751903 -.00005678  00000-0 -36275-3 0  9999
2 45557  53.0515 268.5681 0001490  80.0078 280.1079 15.06384701149444
1 45557U 20025AC  23002.45272655  .00000694  00000-0  65496-4 0  9991
2 45557  53.0527 264.1003 0001488  80.2222 279.8934 15.06396063150190
1 45557U 20025AC  23002.45272655  .00000694  00000-0  65496-4 0  9991
2 45557  53.0527 264.1003 0001488  80.2222 279.8934 15.06396063149592
1 45557U 20025AC  23002.71811747  .00003440  00000-0  24974-3 0  9998
2 45557  53.0524 262.9088 0001711  81.3732 278.7451 15.06394778150231
1 45557U 20025AC  23003.11619742  .00007956  00000-0  55233-3 0  9992
2 45557  53.0523 261.1217 0001448  81.7066 278.4087 15.06404101150296
1 45557U 20025AC  23003.77967199  .00002612  00000-0  19418-3 0  9995
2 45557  53.0522 258.1435 0001475  80.0197 280.0958 15.06394551149796
1 45557U 20025AC  23004.11140792  .00000980  00000-0  84710-4 0  9990
2 45557  53.0520 256.6545 0001444  78.8737 281.2415 15.06392077150446
1 45557U 20025AC  23005.10659846  .00006798  00000-0  47458-3 0  9995
2 45557  53.0516 252.1860 0001475  83.3968 276.7189 15.06418446149997
1 45557U 20025AC  23005.37198534  .00005914  00000-0  41544-3 0  9995
2 45557  53.0518 250.9947 0001507  82.5814 277.5346 15.06415294150633
1 45557U 20025AC  23005.70371755  .00003716  00000-0  26817-3 0  9994
2 45557  53.0519 249.5056 0001582  85.7462 274.3707 15.06413079150686
1 45557U 20025AC  23005.70371755  .00003716  00000-0  26817-3 0  9994
2 45557  53.0519 249.5056 0001582  85.7462 274.3707 15.06413079150080
1 45557U 20025AC  23006.36719068 -.00000659  00000-0 -25401-4 0  9994
2 45557  53.0506 246.5278 0000478  82.8267 277.2776 15.06394939150185
1 45557U 20025AC  23006.69893344 -.00004829  00000-0 -30562-3 0  9996
2 45557  53.0521 245.0373 0001592  83.4135 276.7035 15.06387525150838
1 45557U 20025AC  23007.03066852 -.00003404  00000-0 -20980-3 0  9992
2 45557  53.0518 243.5480 0001537  82.9823 277.1341 15.06389208150883
1 45557U 20025AC  23007.69413699  .00001728  00000-0  13488-3 0  9999
2 45557  53.0505 240.5691 0001422  85.3133 274.8019 15.06396023150388
1 45557U 20025AC  23007.89317674  .00002431  00000-0  18203-3 0  9999
2 45557  53.0513 239.6764 0001360  87.6488 272.4657 15.06399221151012
1 45557U 20025AC  23008.35760589  .00007447  00000-0  51825-3 0  9997
2 45557  53.0508 237.5914 0001371  86.1955 273.9190 15.06405035151081
1 45557U 20025AC  23008.62299710  .00005021  00000-0  35573-3 0  9998
2 45557  53.0506 236.3999 0001478  87.9462 272.1697 15.06398647151127
1 45557U 20025AC  23009.02107503  .00003773  00000-0  27203-3 0  9994
2 45557  53.0497 234.6137 0001497  84.4045 275.7114 15.06404586150583
1 45557U 20025AC  23009.61819502  .00001968  00000-0  15097-3 0  9990
2 45557  53.0507 231.9315 0001390  91.6476 268.4673 15.06403094151272
1 45557U 20025AC  23009.88358167  .00003609  00000-0  26101-3 0  9996
2 45557  53.0506 230.7403 0001543  87.4125 272.7040 15.06404956151319
1 45557U 20025AC  23010.01627602  .00001695  00000-0  13269-3 0  9990
2 45557  53.0507 230.1456 0001747  88.0291 272.0898 15.06400984150735
1 45557U 20025AC  23010.61339657  .00002293  00000-0  17275-3 0  9992
2 45557  53.0496 227.4645 0001479  86.1808 273.9350 15.06402613151427
1 45557U 20025AC  23010.94513163  .00001975  00000-0  15145-3 0  9994
2 45557  53.0495 225.9727 0001055  86.7806 273.3304 15.06400825151475
1 45557U 20025AC  23011.01148047  .00000264  00000-0  36637-4 0  9998
2 45557  53.0501 225.6771 0001414  86.4772 273.6378 15.06396109150884
1 45557U 20025AC  23011.27686397  .00001685  00000-0  13195-3 0  9992
2 45557  53.0526 224.4841 0000897  99.7672 260.3418 15.06401504151522
1 45557U 20025AC  23011.87398487  .00003362  00000-0  24447-3 0  9994
2 45557  53.0504 221.8047 0001196  86.0782 274.0344 15.06404913151618
1 45557U 20025AC  23012.00667769  .00003287  00000-0  23939-3 0  9993
2 45557  53.0507 221.2089 0001083  83.0522 277.0590 15.06405850151038
1 45557U 20025AC  23012.60380442 -.00000299  00000-0 -11955-5 0  9998
2 45557  53.0499 218.5279 0001122  82.2758 277.8358 15.06392935151123
1 45557U 20025AC  23012.93553781  .00001877  00000-0  14487-3 0  9994
2 45557  53.0505 217.0386 0001392  87.8075 272.3073 15.06398923151774
1 45557U 20025AC  23013.53266476 -.00000026  00000-0  17170-4 0  9992
2 45557  53.0488 214.3581 0001645  83.9482 276.1694 15.06393652151866
1 45557U 20025AC  23013.93075109  .00001295  00000-0  10584-3 0  9996
2 45557  53.0527 212.5708 0001461  88.8529 271.2627 15.06389065151925
1 45557U 20025AC  23013.93075109  .00001295  00000-0  10584-3 0  9996
2 45557  53.0527 212.5708 0001461  88.8529 271.2627 15.06389065151329
1 45557U 20025AC  23015.25769159  .00004432  00000-0  31625-3 0  9993
2 45557  53.0521 206.6133 0001409  94.5743 265.5407 15.06397252151524
1 45557U 20025AC  23015.52307856  .00004616  00000-0  32859-3 0  9999
2 45557  53.0518 205.4217 0001414  95.4621 264.6529 15.06399569152160
1 45557U 20025AC  23015.78846422  .00005435  00000-0  38341-3 0  9996
2 45557  53.0521 204.2306 0001398  94.3588 265.7561 15.06404630152200
1 45557U 20025AC  23016.51828098  .00001688  00000-0  13216-3 0  9997
2 45557  53.0520 200.9547 0001325  92.8405 267.2736 15.06399200152319
1 45557U 20025AC  23016.78367044  .00000719  00000-0  67188-4 0  9997
2 45557  53.0520 199.7638 0001333  89.8644 270.2498 15.06395671151759
1 45557U 20025AC  23016.91636293  .00000848  00000-0  75796-4 0  9994
2 45557  53.0521 199.1681 0001292  87.0500 273.0636 15.06398060152376
1 45557U 20025AC  23017.51348430  .00000725  00000-0  67582-4 0  9992
2 45557  53.0519 196.4878 0001251  85.3515 274.7617 15.06398189152462
1 45557U 20025AC  23017.84521584  .00000929  00000-0  81215-4 0  9996
2 45557  53.0520 194.9983 0001255  84.6873 275.4259 15.06401832152513
1 45557U 20025AC  23017.91156144  .00000699  00000-0  65799-4 0  9993
2 45557  53.0532 194.7003 0001235  85.6051 274.5079 15.06403328151920
1 45557U 20025AC  23018.50869013  .00000899  00000-0  79245-4 0  9998
2 45557  53.0534 192.0191 0001260  84.7023 275.4109 15.06393680152618
1 45557U 20025AC  23018.50869013  .00000899  00000-0  79245-4 0  9998
2 45557  53.0534 192.0191 0001260  84.7023 275.4109 15.06393680152012
1 45557U 20025AC  23018.77407264  .00001628  00000-0  12819-3 0  9997
2 45557  53.0536 190.8280 0001209  83.9122 276.2005 15.06399833152653
1 45557U 20025AC  23018.77407264  .00001628  00000-0  12819-3 0  9997
2 45557  53.0536 190.8280 0001209  83.9122 276.2005 15.06399833152057
1 45557U 20025AC  23019.50389455 -.00003668  00000-0 -22742-3 0  9994
2 45557  53.0534 187.5520 0001050  92.6096 267.5013 15.06407742152765
1 45557U 20025AC  23019.50389455 -.00003668  00000-0 -22742-3 0  9994
2 45557  53.0534 187.5520 0001050  92.6096 267.5013 15.06407742152169
1 45557U 20025AC  23020.16735651  .00000439  00000-0  48336-4 0  9990
2 45557  53.0537 184.5740 0001138  92.7942 267.3177 15.06403800152868
1 45557U 20025AC  23020.63178080  .00001847  00000-0  14283-3 0  9996
2 45557  53.0538 182.4893 0001103  93.8526 266.2589 15.06404562152330
1 45557U 20025AC  23021.16256327  .00000857  00000-0  76463-4 0  9995
2 45557  53.0563 180.1072 0001753  83.4416 276.6772 15.06397012152415
1 45557U 20025AC  23022.42315177 -.00000547  00000-0 -17806-4 0  9998
2 45557  53.0535 174.4478 0001366  84.3842 275.7303 15.06397090152600
1 45557U 20025AC  23022.82122752 -.00000199  00000-0  55609-5 0  9993
2 45557  53.0548 172.6599 0001188  97.7703 262.3421 15.06406914152669
1 45557U 20025AC  23023.41835937  .00000425  00000-0  47433-4 0  9991
2 45557  53.0526 169.9786 0001324  85.5941 274.5200 15.06391165152754
1 45557U 20025AC  23024.81163589  .00003184  00000-0  23249-3 0  9996
2 45557  53.0542 163.7252 0001300  89.0394 271.0744 15.06408393152967
1 45557U 20025AC  23025.40876593  .00000076  00000-0  24003-4 0  9995
2 45557  53.0532 161.0437 0001483  90.7840 269.3319 15.06393947153056
1 45557U 20025AC  23025.54145965 -.00000189  00000-0  62264-5 0  9990
2 45557  53.0530 160.4476 0001279  91.6899 268.4236 15.06393323153671
1 45557U 20025AC  23025.67415597  .00001041  00000-0  88768-4 0  9998
2 45557  53.0553 159.8543 0001238  89.0654 271.0476 15.06394763153695
1 45557U 20025AC  23026.60300664  .00001964  00000-0  15068-3 0  9996
2 45557  53.0552 155.6840 0001327  90.6159 269.4982 15.06404320153835
1 45557U 20025AC  23026.66935262  .00002508  00000-0  18715-3 0  9997
2 45557  53.0551 155.3861 0001279  88.6518 271.4618 15.06406052153244
1 45557U 20025AC  23027.33282682  .00002108  00000-0  16041-3 0  9999
2 45557  53.0551 152.4077 0001188  84.4042 275.7083 15.06396393153346
1 45557U 20025AC  23027.59821346  .00002117  00000-0  16100-3 0  9999
2 45557  53.0558 151.2166 0001434  97.2030 262.9122 15.06397899153986
1 45557U 20025AC  23028.52707217  .00000568  00000-0  57025-4 0  9993
2 45557  53.0538 147.0459 0001137  91.6942 268.4178 15.06394835154128
1 45557U 20025AC  23028.52707217  .00000568  00000-0  57025-4 0  9993
2 45557  53.0538 147.0459 0001137  91.6942 268.4178 15.06394835153521
1 45557U 20025AC  23028.72611019  .00000348  00000-0  42223-4 0  9999
2 45557  53.0537 146.1514 0001186  89.0843 271.0282 15.06399528154157
1 45557U 20025AC  23029.72131482  .00001499  00000-0  11948-3 0  9998
2 45557  53.0546 141.6856 0001336  71.3680 288.7454 15.06400174154309
1 45557U 20025AC  23029.72131482  .00001499  00000-0  11948-3 0  9998
2 45557  53.0546 141.6856 0001336  71.3680 288.7454 15.06400174153702
1 45557U 20025AC  23030.45113380  .00001626  00000-0  12802-3 0  9999
2 45557  53.0547 138.4085 0001346  80.4546 279.6595 15.06395449154416
1 45557U 20025AC  23030.45113380  .00001626  00000-0  12802-3 0  9999
2 45557  53.0547 138.4085 0001346  80.4546 279.6595 15.06395449153819
1 45557U 20025AC  23031.51268202  .00001009  00000-0  86639-4 0  9996
2 45557  53.0550 133.6440 0001356  72.9385 287.1753 15.06400940154570
1 45557U 20025AC  23031.71171773  .00001505  00000-0  11989-3 0  9990
2 45557  53.0555 132.7509 0001357  66.7791 293.3341 15.06406662154607
1 45557U 20025AC  23031.71171773  .00001505  00000-0  11989-3 0  9990
2 45557  53.0555 132.7509 0001357  66.7791 293.3341 15.06406662154001
1 45557U 20025AC  23031.97710883  .00000678  00000-0  64405-4 0  9991
2 45557  53.0559 131.5589 0001391  71.3463 288.7677 15.06402403154049
